LUDI TANCE-4 01A        
1 57624U 23120A   26197.00248190 -.00000188  00000+0  00000+0 0  9997
2 57624  15.0858 193.2533 0001454  16.5301 174.4684  1.00275633 10832
TJS-10                  
1 58204U 23169A   26196.78922244 -.00000261  00000+0  00000+0 0  9990
2 58204   2.6161  80.1472 0004080 115.1904 114.7974  1.00273627  9822
ZHONGXING-6E            
1 58253U 23172A   26195.70499280 -.00000370  00000+0  00000+0 0  9999
2 58253   0.0192  86.2131 0002698  23.7417 191.9164  1.00272476  9938
YAOGAN-41               
1 58582U 23197A   26197.22292058 -.00000370  00000+0  00000+0 0  9994
2 58582   3.0767 313.6043 0014274 198.4257 345.3609  1.00265197  9614
OVZON-3                 
1 58698U 24003A   26195.87143991  .00000043  00000+0  00000+0 0  9995
2 58698   0.0136 108.2863 0000368 217.1758 340.6622  1.00270475  7729
INSAT-3DS               
1 58990U 24033A   26197.15739199 -.00000166  00000+0  00000+0 0  9994
2 58990   0.0884 264.5566 0001089 224.0381 304.1257  1.00270833 47350
MERAH PUTIH 2           
1 58995U 24035A   26195.34489189 -.00000365  00000+0  00000+0 0  9992
2 58995   0.0215  82.0854 0001062  34.4456  52.7926  1.00270544  8864
TJS-11                  
1 59020U 24037A   26197.15018163 -.00000371  00000+0  00000+0 0  9992
2 59020   4.1617 327.4460 0001838 150.5911 342.5812  1.00273247  8879
HULIANWAN GAOGUI-01 (H*)
1 59069U 24040A   26196.56370677  .00000146  00000+0  00000+0 0  9993
2 59069   0.0734 333.3745 0001725  62.7563 133.8265  1.00274292  7616
EUTELSAT 36D            
1 59346U 24059A   26196.92062104  .00000145  00000+0  00000+0 0  9993
2 59346   0.0038 131.9941 0000480  63.3891 105.6708  1.00271634  8436
PAKSAT-MM1              
1 59915U 24104A   26194.56857404  .00000150  00000+0  00000+0 0  9995
2 59915   0.0311 143.3666 0001963 313.2921  77.6097  1.00269751  7795
ASTRA 1P (SES-24)       
1 60086U 24115A   26194.35091053  .00000118  00000+0  00000+0 0  9999
2 60086   0.0666 329.5187 0001497 236.9138 230.3347  1.00281209  7460
GOES 19                 
1 60133U 24119A   26197.11247167 -.00000259  00000+0  00000+0 0  9999
2 60133   0.0188 138.2561 0000377  64.7806  56.2032  1.00271375  7254
ZHONGXING-3A            
1 60179U 24122A   26196.79104245 -.00000324  00000+0  00000+0 0  9998
2 60179   0.0284 118.0048 0001717  49.1090 152.8803  1.00270068  7592
TURKSAT 6A              
1 60233U 24127A   26197.13563772  .00000000  00000+0  00000+0 0  9997
2 60233   0.0177 198.9054 0002953 329.3488 216.5221  1.00270053  7300
HULIANWAN GAOGUI-02 (H*)
1 60327U 24135A   26196.94384784 -.00000185  00000+0  00000+0 0  9997
2 60327   0.0466 358.0233 0006209  10.5217  58.0470  1.00271040  7784
ZHONGXING-4A            
1 60606U 24151A   26196.52995333 -.00000372  00000+0  00000+0 0  9995
2 60606   1.2426 270.4906 0000406 296.2264  35.6107  1.00267142  7039
HULIANWAN GAOGUI-03 (H*)
1 61503U 24181A   26196.82692263 -.00000251  00000+0  00000+0 0  9990
2 61503   0.0510 359.2926 0001047  93.7712  61.1711  1.00270412  7113
DSN-3 (KIRAMEKI-3)      
1 61733U 24198A   26197.15591784 -.00000261  00000+0  00000+0 0  9997
2 61733   0.0184  52.3745 0000857  86.2704 355.5398  1.00271599  6219
KOREASAT 6A             
1 61910U 24206A   26197.07058691 -.00000372  00000+0  00000+0 0  9993
2 61910   0.0156 100.3326 0000742 353.5234 341.4645  1.00269677  6128
OPTUS-X (ADS-01)        
1 62006U 24212A   26196.20183799 -.00000153  00000+0  00000+0 0  9996
2 62006   0.0135  63.8448 0002386  90.1044   8.1442  1.00270006  6040
GSAT-N2 (GSAT-20)       
1 62028U 24214A   26197.14083777 -.00000030  00000+0  00000+0 0  9995
2 62028   0.0716 261.9817 0002643 144.5032   6.1202  1.00271262  6189
SXM-9                   
1 62259U 24234A   26197.11047832 -.00000215  00000+0  00000+0 0  9997
2 62259   0.0158 346.8891 0004882 330.6688 290.9832  1.00269416  5866
TJS-12                  
1 62374U 24246A   26197.22822344 -.00000242  00000+0  00000+0 0  9999
2 62374   0.6092 302.2379 0001813  97.6676 122.8308  1.00268773  5857
NUVIEW ALPHA            
1 62455U 24252B   26196.25545237 -.00000225  00000+0  00000+0 0  9992
2 62455   0.0436  27.4031 0000983  54.2618 220.2947  1.00270943  4107
AGILA                   
1 62456U 24252C   26196.60739123 -.00000192  00000+0  00000+0 0  9994
2 62456   0.0493 128.1618 0001181 351.5480 184.5583  1.00270462  5444
NUVIEW BRAVO            
1 62457U 24252D   26196.25545237 -.00000224  00000+0  00000+0 0  9993
2 62457   0.0698 162.7343 0001502 343.8112 155.4099  1.00270612  4078
THURAYA-4               
1 62483U 25001A   26197.13615772  .00000129  00000+0  00000+0 0  9998
2 62483   0.0224  73.1531 0000165 219.7034  94.4396  1.00272942  4467
SHIJIAN-25 (SJ-25)      
1 62485U 25002A   26196.79329299 -.00000364  00000+0  00000+0 0  9990
2 62485   5.1794  60.9819 0052117 175.4963 109.8555  1.00263213  5643
TJS-14                  
1 62804U 25017A   26197.20229382  .00000105  00000+0  00000+0 0  9992
2 62804   0.7186 297.8240 0002042 308.8682 138.5806  1.00267466  5568
SPAINSAT NG I           
1 62852U 25021A   26197.13312439  .00000141  00000+0  00000+0 0  9998
2 62852   0.0189  34.6457 0000101 248.1628  88.0602  1.00270495  4270
QZS-6 (MICHIBIKI-6)     
1 62876U 25023A   26196.78887578 -.00000242  00000+0  00000+0 0  9990
2 62876   0.0103  12.6020 0001839 119.3403 176.0977  1.00266863  5237
